[{"OBJECT_NAME":"HEAD-3C","OBJECT_ID":"2023-121C","EPOCH":"2026-03-09T23:24:32.374944","MEAN_MOTION":14.62076038,"ECCENTRICITY":0.00043416,"INCLINATION":44.9997,"RA_OF_ASC_NODE":68.3836,"ARG_OF_PERICENTER":118.4507,"MEAN_ANOMALY":241.6788,"EPHEMERIS_TYPE":0,"CLASSIFICATION_TYPE":"U","NORAD_CAT_ID":57628,"ELEMENT_SET_NO":999,"REV_AT_EPOCH":13721,"BSTAR":0.00024044057,"MEAN_MOTION_DOT":1.059e-5,"MEAN_MOTION_DDOT":0},{"OBJECT_NAME":"COSMOS 2251 DEB","OBJECT_ID":"1993-036AW","EPOCH":"2026-03-09T13:15:17.136288","MEAN_MOTION":14.58093077,"ECCENTRICITY":0.00622869,"INCLINATION":74.0311,"RA_OF_ASC_NODE":146.1574,"ARG_OF_PERICENTER":311.2918,"MEAN_ANOMALY":48.2893,"EPHEMERIS_TYPE":0,"CLASSIFICATION_TYPE":"U","NORAD_CAT_ID":33805,"ELEMENT_SET_NO":999,"REV_AT_EPOCH":90492,"BSTAR":0.00028844549,"MEAN_MOTION_DOT":1.332e-5,"MEAN_MOTION_DDOT":0}]
